{
    "links": {
        "self": "http://www.neowsapp.com/rest/v1/neo/3835503?api_key=iIulBulltgU6a56xZRHN4H3l9WmuAYTsLGpBGhQ2"
    },
    "id": "3835503",
    "neo_reference_id": "3835503",
    "name": "(2018 UW1)",
    "designation": "2018 UW1",
    "nasa_jpl_url": "http://ssd.jpl.nasa.gov/sbdb.cgi?sstr=3835503",
    "absolute_magnitude_h": 24.7,
    "estimated_diameter": {
        "kilometers": {
            "estimated_diameter_min": 0.0305179233,
            "estimated_diameter_max": 0.0682401509
        },
        "meters": {
            "estimated_diameter_min": 30.5179232594,
            "estimated_diameter_max": 68.2401509401
        },
        "miles": {
            "estimated_diameter_min": 0.0189629525,
            "estimated_diameter_max": 0.0424024508
        },
        "feet": {
            "estimated_diameter_min": 100.1244233463,
            "estimated_diameter_max": 223.8850168104
        }
    },
    "is_potentially_hazardous_asteroid": false,
    "close_approach_data": [
        {
            "close_approach_date": "2018-10-14",
            "close_approach_date_full": "2018-Oct-14 09:50",
            "epoch_date_close_approach": 1539510600000,
            "relative_velocity": {
                "kilometers_per_second": "11.9328525761",
                "kilometers_per_hour": "42958.269274095",
                "miles_per_hour": "26692.597927562"
            },
            "miss_distance": {
                "astronomical": "0.0299141355",
                "lunar": "11.6365987095",
                "kilometers": "4475090.953691385",
                "miles": "2780692.576195713"
            },
            "orbiting_body": "Earth"
        }
    ],
    "orbital_data": {
        "orbit_id": "7",
        "orbit_determination_date": "2019-02-11 07:08:33",
        "first_observation_date": "2018-10-21",
        "last_observation_date": "2018-11-11",
        "data_arc_in_days": 21,
        "observations_used": 74,
        "orbit_uncertainty": "7",
        "minimum_orbit_intersection": ".00466596",
        "jupiter_tisserand_invariant": "3.685",
        "epoch_osculation": "2459000.5",
        "eccentricity": ".5431392919337245",
        "semi_major_axis": "1.960399044424762",
        "inclination": "1.463147967929574",
        "ascending_node_longitude": "295.8216898174762",
        "orbital_period": "1002.571027416734",
        "perihelion_distance": ".8956292955283466",
        "perihelion_argument": "38.21513027902056",
        "aphelion_distance": "3.025168793321177",
        "perihelion_time": "2459374.252065950205",
        "mean_anomaly": "225.7943027849481",
        "mean_motion": ".3590768036929921",
        "equinox": "J2000",
        "orbit_class": {
            "orbit_class_type": "APO",
            "orbit_class_description": "Near-Earth asteroid orbits which cross the Earth’s orbit similar to that of 1862 Apollo",
            "orbit_class_range": "a (semi-major axis) > 1.0 AU; q (perihelion) < 1.017 AU"
        }
    },
    "is_sentry_object": false
}